ONEWEB-0202             
1 48224U 21031Q   24063.58332409 -.00000169  00000+0 -48936-3 0  9996
2 48224  87.8903  96.0261 0001133  82.6286 277.4972 13.14501672138584
ONEWEB-0204             
1 48225U 21031R   24063.61740721  .00000265  00000+0  67981-3 0  9997
2 48225  87.8902  96.0314 0002331 100.8510 259.2882 13.14504052138489
ONEWEB-0205             
1 48226U 21031S   24063.59283658 -.00000033  00000+0 -12296-3 0  9990
2 48226  87.8902  96.0074 0001802 101.8965 258.2366 13.14503495138509
ONEWEB-0206             
1 48227U 21031T   24063.64198855 -.00000039  00000+0 -14079-3 0  9998
2 48227  87.8902  95.9890 0001890 105.0253 255.1086 13.14503931138451
ONEWEB-0182             
1 48228U 21031U   24063.63724471 -.00000090  00000+0 -27818-3 0  9999
2 48228  87.8905  96.0131 0002113  97.9613 262.1756 13.14501724138666
ONEWEB-0186             
1 48229U 21031V   24063.57221274 -.00000164  00000+0 -47587-3 0  9993
2 48229  87.8904  95.9909 0001819  94.1075 266.0262 13.14503858138610
ONEWEB-0181             
1 48230U 21031W   24063.62614393  .00000190  00000+0  47770-3 0  9990
2 48230  87.8905  96.0490 0001732  93.0564 267.0764 13.14501864138461
ONEWEB-0188             
1 48231U 21031X   24063.58807436 -.00000131  00000+0 -38874-3 0  9990
2 48231  87.8904  96.0534 0001914  97.4554 262.6793 13.14504282138368
